[{"OBJECT_NAME":"STARLINK-36740","OBJECT_ID":"2026-026W","EPOCH":"2026-03-03T04:00:01.999584","MEAN_MOTION":15.73383786,"ECCENTRICITY":0.0001853,"INCLINATION":97.2853,"RA_OF_ASC_NODE":116.5683,"ARG_OF_PERICENTER":67.5231,"MEAN_ANOMALY":61.6104,"EPHEMERIS_TYPE":0,"CLASSIFICATION_TYPE":"U","NORAD_CAT_ID":67741,"ELEMENT_SET_NO":999,"REV_AT_EPOCH":426,"BSTAR":-0.016067,"MEAN_MOTION_DOT":-0.01926507,"MEAN_MOTION_DDOT":0},{"OBJECT_NAME":"STARLINK-36693","OBJECT_ID":"2026-026X","EPOCH":"2026-03-03T04:00:01.999584","MEAN_MOTION":15.74049384,"ECCENTRICITY":0.0001827,"INCLINATION":97.2848,"RA_OF_ASC_NODE":116.5616,"ARG_OF_PERICENTER":65.5383,"MEAN_ANOMALY":45.341,"EPHEMERIS_TYPE":0,"CLASSIFICATION_TYPE":"U","NORAD_CAT_ID":67742,"ELEMENT_SET_NO":999,"REV_AT_EPOCH":440,"BSTAR":-0.015596,"MEAN_MOTION_DOT":-0.01924884,"MEAN_MOTION_DDOT":0},{"OBJECT_NAME":"STARLINK-36717","OBJECT_ID":"2026-026Y","EPOCH":"2026-03-03T04:00:01.999584","MEAN_MOTION":15.76162166,"ECCENTRICITY":0.0001852,"INCLINATION":97.2851,"RA_OF_ASC_NODE":116.5696,"ARG_OF_PERICENTER":63.5164,"MEAN_ANOMALY":73.3768,"EPHEMERIS_TYPE":0,"CLASSIFICATION_TYPE":"U","NORAD_CAT_ID":67743,"ELEMENT_SET_NO":999,"REV_AT_EPOCH":440,"BSTAR":-0.014276,"MEAN_MOTION_DOT":-0.01931798,"MEAN_MOTION_DDOT":0},{"OBJECT_NAME":"STARLINK-36692","OBJECT_ID":"2026-026Z","EPOCH":"2026-03-03T04:00:01.999584","MEAN_MOTION":15.74916651,"ECCENTRICITY":0.0001897,"INCLINATION":97.2849,"RA_OF_ASC_NODE":116.5656,"ARG_OF_PERICENTER":62.4424,"MEAN_ANOMALY":61.5046,"EPHEMERIS_TYPE":0,"CLASSIFICATION_TYPE":"U","NORAD_CAT_ID":67744,"ELEMENT_SET_NO":999,"REV_AT_EPOCH":426,"BSTAR":-0.015035,"MEAN_MOTION_DOT":-0.01926812,"MEAN_MOTION_DDOT":0},{"OBJECT_NAME":"2026-027A","OBJECT_ID":"2026-027A","EPOCH":"2026-03-03T04:13:25.139424","MEAN_MOTION":15.17554843,"ECCENTRICITY":0.0009791,"INCLINATION":97.4894,"RA_OF_ASC_NODE":191.259,"ARG_OF_PERICENTER":217.7971,"MEAN_ANOMALY":142.2575,"EPHEMERIS_TYPE":0,"CLASSIFICATION_TYPE":"U","NORAD_CAT_ID":67746,"ELEMENT_SET_NO":999,"REV_AT_EPOCH":287,"BSTAR":0.00056438,"MEAN_MOTION_DOT":0.00011284,"MEAN_MOTION_DDOT":0},{"OBJECT_NAME":"2026-027B","OBJECT_ID":"2026-027B","EPOCH":"2026-03-03T04:11:36.366144","MEAN_MOTION":15.17655225,"ECCENTRICITY":0.0009909,"INCLINATION":97.4889,"RA_OF_ASC_NODE":191.2592,"ARG_OF_PERICENTER":220.3226,"MEAN_ANOMALY":139.7274,"EPHEMERIS_TYPE":0,"CLASSIFICATION_TYPE":"U","NORAD_CAT_ID":67747,"ELEMENT_SET_NO":999,"REV_AT_EPOCH":287,"BSTAR":0.00055633,"MEAN_MOTION_DOT":0.00011155,"MEAN_MOTION_DDOT":0},{"OBJECT_NAME":"2026-027C","OBJECT_ID":"2026-027C","EPOCH":"2026-03-03T04:09:43.734240","MEAN_MOTION":15.17706386,"ECCENTRICITY":0.0010227,"INCLINATION":97.4901,"RA_OF_ASC_NODE":191.2638,"ARG_OF_PERICENTER":222.9794,"MEAN_ANOMALY":137.0642,"EPHEMERIS_TYPE":0,"CLASSIFICATION_TYPE":"U","NORAD_CAT_ID":67748,"ELEMENT_SET_NO":999,"REV_AT_EPOCH":287,"BSTAR":0.00038647,"MEAN_MOTION_DOT":7.736e-5,"MEAN_MOTION_DDOT":0},{"OBJECT_NAME":"2026-027D","OBJECT_ID":"2026-027D","EPOCH":"2026-03-03T04:06:07.072416","MEAN_MOTION":15.17991577,"ECCENTRICITY":0.0009958,"INCLINATION":97.4896,"RA_OF_ASC_NODE":191.2661,"ARG_OF_PERICENTER":228.1025,"MEAN_ANOMALY":131.936,"EPHEMERIS_TYPE":0,"CLASSIFICATION_TYPE":"U","NORAD_CAT_ID":67749,"ELEMENT_SET_NO":999,"REV_AT_EPOCH":282,"BSTAR":0.00062585,"MEAN_MOTION_DOT":0.00012682,"MEAN_MOTION_DDOT":0},{"OBJECT_NAME":"2026-027E","OBJECT_ID":"2026-027E","EPOCH":"2026-03-03T04:06:09.622944","MEAN_MOTION":15.17961885,"ECCENTRICITY":0.0009143,"INCLINATION":97.4907,"RA_OF_ASC_NODE":191.2689,"ARG_OF_PERICENTER":229.0389,"MEAN_ANOMALY":131.0055,"EPHEMERIS_TYPE":0,"CLASSIFICATION_TYPE":"U","NORAD_CAT_ID":67750,"ELEMENT_SET_NO":999,"REV_AT_EPOCH":287,"BSTAR":0.00054963,"MEAN_MOTION_DOT":0.00011115,"MEAN_MOTION_DDOT":0},{"OBJECT_NAME":"2026-027F","OBJECT_ID":"2026-027F","EPOCH":"2026-03-03T04:03:48.162816","MEAN_MOTION":15.1821046,"ECCENTRICITY":0.0010332,"INCLINATION":97.4907,"RA_OF_ASC_NODE":191.2716,"ARG_OF_PERICENTER":229.5486,"MEAN_ANOMALY":130.4848,"EPHEMERIS_TYPE":0,"CLASSIFICATION_TYPE":"U","NORAD_CAT_ID":67751,"ELEMENT_SET_NO":999,"REV_AT_EPOCH":287,"BSTAR":0.00088085,"MEAN_MOTION_DOT":0.00018004,"MEAN_MOTION_DDOT":0},{"OBJECT_NAME":"2026-027G","OBJECT_ID":"2026-027G","EPOCH":"2026-03-03T04:04:31.833696","MEAN_MOTION":15.1806529,"ECCENTRICITY":0.0009455,"INCLINATION":97.4902,"RA_OF_ASC_NODE":191.269,"ARG_OF_PERICENTER":231.4914,"MEAN_ANOMALY":128.5472,"EPHEMERIS_TYPE":0,"CLASSIFICATION_TYPE":"U","NORAD_CAT_ID":67752,"ELEMENT_SET_NO":999,"REV_AT_EPOCH":287,"BSTAR":0.00058985,"MEAN_MOTION_DOT":0.00011971,"MEAN_MOTION_DDOT":0},{"OBJECT_NAME":"2026-027H","OBJECT_ID":"2026-027H","EPOCH":"2026-03-03T03:28:33.437280","MEAN_MOTION":15.69436988,"ECCENTRICITY":0.0234391,"INCLINATION":97.5128,"RA_OF_ASC_NODE":192.6543,"ARG_OF_PERICENTER":268.9287,"MEAN_ANOMALY":88.5115,"EPHEMERIS_TYPE":0,"CLASSIFICATION_TYPE":"U","NORAD_CAT_ID":67753,"ELEMENT_SET_NO":999,"REV_AT_EPOCH":295,"BSTAR":0.00063829,"MEAN_MOTION_DOT":0.00411534,"MEAN_MOTION_DDOT":2.3768e-6},{"OBJECT_NAME":"2026-027J","OBJECT_ID":"2026-027J","EPOCH":"2026-03-03T04:00:19.600992","MEAN_MOTION":15.90517746,"ECCENTRICITY":0.0167561,"INCLINATION":97.5073,"RA_OF_ASC_NODE":192.9295,"ARG_OF_PERICENTER":267.8568,"MEAN_ANOMALY":90.3511,"EPHEMERIS_TYPE":0,"CLASSIFICATION_TYPE":"U","NORAD_CAT_ID":67754,"ELEMENT_SET_NO":999,"REV_AT_EPOCH":291,"BSTAR":0.0012732,"MEAN_MOTION_DOT":0.01478021,"MEAN_MOTION_DDOT":2.4414e-6},{"OBJECT_NAME":"2026-028A","OBJECT_ID":"2026-028A","EPOCH":"2026-03-02T07:30:12.017376","MEAN_MOTION":0.99524418,"ECCENTRICITY":0.0042012,"INCLINATION":0.488,"RA_OF_ASC_NODE":289.4603,"ARG_OF_PERICENTER":229.4104,"MEAN_ANOMALY":201.2658,"EPHEMERIS_TYPE":0,"CLASSIFICATION_TYPE":"U","NORAD_CAT_ID":67756,"ELEMENT_SET_NO":999,"REV_AT_EPOCH":18,"BSTAR":0,"MEAN_MOTION_DOT":-6.9e-7,"MEAN_MOTION_DDOT":0},{"OBJECT_NAME":"KUIPER-00159","OBJECT_ID":"2026-030A","EPOCH":"2026-03-03T02:58:58.106496","MEAN_MOTION":15.35410511,"ECCENTRICITY":0.0004272,"INCLINATION":51.8837,"RA_OF_ASC_NODE":250.8209,"ARG_OF_PERICENTER":28.6851,"MEAN_ANOMALY":331.4369,"EPHEMERIS_TYPE":0,"CLASSIFICATION_TYPE":"U","NORAD_CAT_ID":67764,"ELEMENT_SET_NO":999,"REV_AT_EPOCH":408,"BSTAR":0.00072569,"MEAN_MOTION_DOT":0.00025053,"MEAN_MOTION_DDOT":0},{"OBJECT_NAME":"KUIPER-00160","OBJECT_ID":"2026-030B","EPOCH":"2026-03-03T03:00:22.073472","MEAN_MOTION":15.35295446,"ECCENTRICITY":0.0005204,"INCLINATION":51.8802,"RA_OF_ASC_NODE":250.8203,"ARG_OF_PERICENTER":36.1416,"MEAN_ANOMALY":323.992,"EPHEMERIS_TYPE":0,"CLASSIFICATION_TYPE":"U","NORAD_CAT_ID":67765,"ELEMENT_SET_NO":999,"REV_AT_EPOCH":408,"BSTAR":0.00021947,"MEAN_MOTION_DOT":7.263e-5,"MEAN_MOTION_DDOT":0},{"OBJECT_NAME":"KUIPER-00177","OBJECT_ID":"2026-030C","EPOCH":"2026-03-03T02:44:48.479136","MEAN_MOTION":15.36197651,"ECCENTRICITY":7.8e-5,"INCLINATION":51.8825,"RA_OF_ASC_NODE":250.7553,"ARG_OF_PERICENTER":10.6618,"MEAN_ANOMALY":349.4384,"EPHEMERIS_TYPE":0,"CLASSIFICATION_TYPE":"U","NORAD_CAT_ID":67766,"ELEMENT_SET_NO":999,"REV_AT_EPOCH":408,"BSTAR":0.00094651,"MEAN_MOTION_DOT":0.0003367,"MEAN_MOTION_DDOT":0},{"OBJECT_NAME":"KUIPER-00178","OBJECT_ID":"2026-030D","EPOCH":"2026-03-03T03:02:43.124928","MEAN_MOTION":15.35202261,"ECCENTRICITY":0.0005736,"INCLINATION":51.8824,"RA_OF_ASC_NODE":250.8354,"ARG_OF_PERICENTER":28.8085,"MEAN_ANOMALY":331.3216,"EPHEMERIS_TYPE":0,"CLASSIFICATION_TYPE":"U","NORAD_CAT_ID":67767,"ELEMENT_SET_NO":999,"REV_AT_EPOCH":408,"BSTAR":0.00078698,"MEAN_MOTION_DOT":0.00027031,"MEAN_MOTION_DDOT":0},{"OBJECT_NAME":"KUIPER-00180","OBJECT_ID":"2026-030E","EPOCH":"2026-03-03T03:39:58.432032","MEAN_MOTION":15.32186159,"ECCENTRICITY":0.0015311,"INCLINATION":51.8797,"RA_OF_ASC_NODE":250.9945,"ARG_OF_PERICENTER":49.6625,"MEAN_ANOMALY":310.5694,"EPHEMERIS_TYPE":0,"CLASSIFICATION_TYPE":"U","NORAD_CAT_ID":67768,"ELEMENT_SET_NO":999,"REV_AT_EPOCH":408,"BSTAR":-0.00017334,"MEAN_MOTION_DOT":-5.862e-5,"MEAN_MOTION_DDOT":0},{"OBJECT_NAME":"KUIPER-00197","OBJECT_ID":"2026-030F","EPOCH":"2026-03-03T02:47:37.895712","MEAN_MOTION":15.36073913,"ECCENTRICITY":0.0001285,"INCLINATION":51.8829,"RA_OF_ASC_NODE":250.7673,"ARG_OF_PERICENTER":59.8735,"MEAN_ANOMALY":300.2379,"EPHEMERIS_TYPE":0,"CLASSIFICATION_TYPE":"U","NORAD_CAT_ID":67769,"ELEMENT_SET_NO":999,"REV_AT_EPOCH":408,"BSTAR":0.0010228,"MEAN_MOTION_DOT":0.00036282,"MEAN_MOTION_DDOT":0},{"OBJECT_NAME":"KUIPER-00198","OBJECT_ID":"2026-030G","EPOCH":"2026-03-03T02:53:51.994752","MEAN_MOTION":15.35711676,"ECCENTRICITY":0.0002805,"INCLINATION":51.8804,"RA_OF_ASC_NODE":250.7915,"ARG_OF_PERICENTER":32.9417,"MEAN_ANOMALY":327.1743,"EPHEMERIS_TYPE":0,"CLASSIFICATION_TYPE":"U","NORAD_CAT_ID":67770,"ELEMENT_SET_NO":999,"REV_AT_EPOCH":408,"BSTAR":0.00076201,"MEAN_MOTION_DOT":0.00026585,"MEAN_MOTION_DDOT":0},{"OBJECT_NAME":"KUIPER-00199","OBJECT_ID":"2026-030H","EPOCH":"2026-03-03T01:47:49.962912","MEAN_MOTION":15.34047444,"ECCENTRICITY":0.0010245,"INCLINATION":51.8797,"RA_OF_ASC_NODE":251.2267,"ARG_OF_PERICENTER":42.3863,"MEAN_ANOMALY":317.7912,"EPHEMERIS_TYPE":0,"CLASSIFICATION_TYPE":"U","NORAD_CAT_ID":67771,"ELEMENT_SET_NO":999,"REV_AT_EPOCH":407,"BSTAR":0.0009574,"MEAN_MOTION_DOT":0.00031823,"MEAN_MOTION_DDOT":0},{"OBJECT_NAME":"KUIPER-00200","OBJECT_ID":"2026-030J","EPOCH":"2026-03-03T02:37:02.188704","MEAN_MOTION":15.36710499,"ECCENTRICITY":0.0001603,"INCLINATION":51.8807,"RA_OF_ASC_NODE":250.717,"ARG_OF_PERICENTER":203.5913,"MEAN_ANOMALY":156.5,"EPHEMERIS_TYPE":0,"CLASSIFICATION_TYPE":"U","NORAD_CAT_ID":67772,"ELEMENT_SET_NO":999,"REV_AT_EPOCH":408,"BSTAR":0.00078341,"MEAN_MOTION_DOT":0.00028248,"MEAN_MOTION_DDOT":0},{"OBJECT_NAME":"KUIPER-00203","OBJECT_ID":"2026-030K","EPOCH":"2026-03-03T04:00:01.999584","MEAN_MOTION":15.26963897,"ECCENTRICITY":0.0011885,"INCLINATION":51.8804,"RA_OF_ASC_NODE":250.8968,"ARG_OF_PERICENTER":43.2786,"MEAN_ANOMALY":35.8522,"EPHEMERIS_TYPE":0,"CLASSIFICATION_TYPE":"U","NORAD_CAT_ID":67773,"ELEMENT_SET_NO":999,"REV_AT_EPOCH":265,"BSTAR":-0.055247,"MEAN_MOTION_DOT":-0.01354789,"MEAN_MOTION_DDOT":0}]
